<!DOCTYPE html PUBLIC "-//W3C//DTD HTML 4.01 Transitional//EN">
<html>
<!-- Mirrored from sentimentaleconomics.eu/blog/katl-taf.html by HTTrack Website Copier/3.x [XR&CO'2014], Sat, 09 Dec 2023 04:08:02 GMT -->
<head><title></title></head><body><sup class="hqipegnnbp" id="coddeodwu-222421"><sup class="vngkqmoilb" id="mjyygmlks-621328"><sup class="xdpokfcgg" id="uitxbgctry-104614"><sup class="qjfleesnk" id="ssynmukgms-889407"><sup class="yqtgtgkquy" id="skzgecxnc-202982"><sup class="hmyfwhtum" id="uulyulwfei-584478"><sup class="yhxwisswld" id="krmrnmqrda-674164"><sup class="wgvtutgjm" id="lmikmasyu-452246"><sup class="ptdhjmvjs" id="xoungutyr-659346"><sup class="hrknukdzyj" id="ysrzmcuiae-84263"><sup class="kgtxbgqhm" id="jzupjkani-309145"><sup class="eayxtvwkr" id="oadhifjwt-691804"><sup class="yztkajdei" id="gjilmmhlzt-382983"><sup class="tnmxlrisbq" id="qeodukhey-505805"><sup class="ldkfyhfxw" id="qjkxckmki" style="margin: 18px 27px 27px 25px; background: rgb(247,247,248) none repeat scroll 0%; font-size: 21px; -moz-background-clip: initial; -moz-background-origin: initial; -moz-background-inline-policy: initial; line-height: 34px;">Katl taf</sup></sup></sup></sup></sup></sup></sup></sup></sup></sup></sup></sup></sup></sup></sup><sup class="gybwelquu" id="ijiyqroqjk-610926"><sup class="ftasvykens" id="clworakfs-579614"><sup class="hvbmyxsivj" id="buncjdpnv-319977"><sup class="wsvqmdnchh" id="gbfmebnivy-508720"><sup class="vfmpfqwopb" id="qktvkntrq-678785"><sup class="bqkbghjwh" id="lvsllglhni-303418"><sup class="brfmogoyp" id="qakmuwgdie-435904"><sup class="etsbwpmnl" id="khuyiqpxfh-398196"><sup class="gwxfzaqlhb" id="xbuvctmqed-327756"><sup class="ensjnwxae" id="pgexfmnmje-290935"><sup class="xljaqhfzk" id="bwgcrtvceb-806745"><sup class="fhtfzgetb" id="wiqslqxpk-462779"><sup class="vcxdcxjlr" id="vhpondesm-58506"><sup class="blcybkpzii" id="nuqnalopiq-346202"><sup style="padding: 29px 28px 26px 18px; background: rgb(251,251,246) none repeat scroll 0%; -moz-background-clip: initial; -moz-background-origin: initial; -moz-background-inline-policy: initial; line-height: 43px; display: block; font-size: 22px;"><div><h1>Katl taf</h1><p>Katl taf. TAF for: KATL (Atlanta/Hartsfield I, GA, US) issued at 0332 UTC 15 Jun 2023: Text: KATL 150332Z 1504/1606 20007KT P6SM SCT007 BKN050 : Forecast period: 0400 to 0800 UTC 15 June 2023: Forecast type: FROM: standard forecast or significant change: Winds: from the SSW (200 degrees) at 8 MPH (7 knots; 3.6 m/s)taf; katl : 122157z 1222/1324 05015kt p6sm bkn022 ovc030 fm130000 08009kt p6sm sct025 bkn040 fm130700 07008kt p6sm vcsh sct008 bkn012 fm131300 08011kt 6sm -radz br ...Download our app. Easy access to all aviation weather on your mobile phone and tablet. With many features not available on the website, like offline support and a personal airport list.33.6367, -84.4281. Local time. Oct 25, 2022 01:54. Change. Hartsfield Jackson Atlanta International Airport is a large airport in Fulton County, Georgia, United States. The airport has 5 runways: 8L/26R, 8R/26L, 9L/27R, 9R/27L and 10/28. The ICAO designator of this field is KATL and it's IATA code is ATL. Nearby other airfields are Coleman ...taf: katl 251125z 2512/2618 28003kt p6sm bkn250 fm251600 30006kt p6sm bkn200 fm260100 34003kt p6sm few080 bkn150 fm260700 03003kt p6sm sct080 bkn120 Weather observations and forecasts of more than 4000 airports (METAR and TAF reports).TAF KATL 071723Z 0718/0824 33015G25KT P6SM FEW250 FM080000 33013KT P6SM SKC FM080500 33007KT P6SM SKC FM082300 30006KT P6SM SKC= Charlotte Douglas Intl (KCLT) TAF KCLT 071730Z 0718/0824 33010G18KT P6SM FEW050 FM080100 33006KT P6SM SKC FM081600 30007KT P6SM SKC= Washington Dulles Intl (KIAD) …METAR KATL 220052Z 09008KT 10SM FEW045 FEW250 23/16 A3015 RMK AO2 SLP201 T02280156 $. The wind is from direction 090° with a speed of 8 kt. Visibility is 10 mi. ... METAR TAF KHMP - Atlanta Speedway Airport (16 NM) METAR KPDK - Dekalb-Peachtree Airport (16 NM) METAR TAF KMGE - Dobbins Air Reserve Base (17 …AVIATION WEATHER CENTER TAF Text Data TAF Home Plot Data Board Info IDs: Format: Raw Decoded Include METAR Data at: 1604 UTC 08 Oct 2023 Page loaded: 16:04 UTC | 09:04 AM Pacific | 10:04 AM Mountain | 11:04 AM Central | 12:04 PM EasternMETAR KATL 221252Z 06011KT 10SM FEW085 21/14 A3016 RMK AO2 SLP206 T02060144 $. The wind is from direction 060° with a speed of 11 kt. Visibility is 10 mi. ... METAR KPDK - Dekalb-Peachtree Airport (16 NM) METAR TAF KMGE - Dobbins Air Reserve Base (17 NM) METAR TAF. 22 September 08:52 LT 3d . This METAR is from …KATL METAR TAF. AREA AREA METARS. AREA TAFS. TRENDS WX HISTORY. WX GRAPHS. Search icon. KATL METAR TAF AREA METARS AREA TAFS. KATL. UTC. Hartsfield Jackson Atlanta International Airport Atlanta, Georgia, United States. METAR - Current. KATL 300752Z 00000KT 10SM FEW250 21/17 A3010 RMK AO2 SLP184 …Impacts TAF Board. TAF Home. Plot. Data. Board. Info. For situational awareness. Not to be used for flight planning purposes. IDs: KATL - Atlanta/Hartsfield I, GA, US. Issued at 1346 UTC 16 Apr 2023. Updated at 1431 UTC 16 Apr 2023. Potential Impact: None: Slight: Moderate: High: Time 1406Z 16/15Z 16/16Z 16/17Z 16/18Z 16/19ZTAF SKRG 300430Z 3006/0106 VRB02KT 9999 SCT012. PROB40. TEMPO 3009/3012 5000 BCFG DZ BKN007. BECMG 3013/3015 10010KT. BECMG 0100/0102 VRB02KT TX23/3019Z TN13/3011Z. Aviation Weather Center Homepage provides comprehensive user-friendly aviation weather Text products and graphics.Acronym Definition; TTAF: Toyota Tsusho Africa (est. 1999; subsidiary of Toyota Tsusho Corporation) TTAF: Through the Fire and Flames (DragonForce song) TTAF: Training …KATL - Atlanta/Hartsfield I, GA, US Issued at 0348 UTC 10 Oct 2023 Updated at 0501 UTC 10 Oct 2023 Potential Impact None Slight Moderate High NOTE: LAMP data beyond the time of the TAF data is denoted as LAMP in Type and colored magenta. Raw TAF KATL 100348Z 1004/1106 23006KT P6SM SKC FM101800 24012KT P6SM SCT250 FM110000 24006KT P6SM SCT250KATL - Atlanta/Hartsfield I, GA, US. Updated at: 2100 UTC 08 Sep 2023 Latest TAF at: 1945 UTC 08 Sep 2023. TAF Board. Time 2052Z 08/21Z 08/22Z 08/23Z 09/00Z 09/01Z 09/02Z Raw TAF. KATL 051953Z 0520/0624 14006KT P6SM VCSH SCT040 SCT100. TEMPO 0521/0601 VRB15G25KT 4SM TSRA BKN035CB. FM060200 12005KT P6SM SCT040 SCT150. FM061100 11003KT P6SM FEW010 SCT025. FM061800 12006KT P6SM BKN035.Unicom. 122.95 MHz. Unicom. Warning: Do not use this data for real-world aviation or navigation. No guarantee of current accuracy is given. Airport information for Hartsfield-Jackson Atlanta Intl (KATL) in , including runways, map, navaids, weather (METAR/TAF) and ATC frequencies. For flight simulation use only.Atlanta (KATL) ... Hartsfield–Jackson began with a five-year, rent-free lease on 287 acres that was an abandoned auto racetrack named The Atlanta Speedway. The ...vhhh 270530z 20010kt 170v230 9999 vcsh few015 sct030 32/25 q1003 nosig taf vhhh 270500z 2706/2812 vrb05kt 9999 few020 tx33/2706z tx32/2806z tn28/2722z tempo 2706/2709 26010kt 4000 shra few010cb sct020 tempo 2709/2718 12010kt tempo 2723/2805 3500 tsra shra few010cb sct020 tempo 2803/2809 26010kt. vmmc ...Show TAF board. IDs: Page loaded: 08:03 UTC | 01:03 AM Pacific | 02:03 AM Mountain | 03:03 AM Central | 04:03 AM Eastern. Aviation Weather Center Homepage provides comprehensive user-friendly aviation weather Text products and graphics.Sep 21, 2023 · ZTL Airspace Summary / KATL TAF For ATC Planning Purposes Only. ZTL Airspace Summary: Surface high pressure will continue to bring VFR conditions. Winds will be east to northeast at 5 to 10kts. Flight Hazards: Moderate turbulence above FL240 over W ZTL; moderate turbulence above FL320 over E ZTL. Updated: 9/21/23 8:00 PM. Impacts TAF Board. TAF Home. Plot. Data. Board. Info. For situational awareness. Not to be used for flight planning purposes. IDs: KATL - Atlanta/Hartsfield I, GA, US. Issued at 1127 UTC 01 Sep 2023. Updated at 1216 UTC 01 Sep 2023. Potential Impact: None: Slight: Moderate: High: Time 1152Z 01/13Z 01/14Z 01/15Z 01/16Z 01/17ZTAF for: KVPS (Valparaiso/Eglin AFB, FL, US) issued at 0100 UTC 05 Jul 2023: Text: TAF KVPS 050100Z 0501/0607 23009KT 9999 BKN030 QNH2999INS : Forecast period: 0100 to 1100 UTC 05 July 2023: Forecast type: FROM: standard forecast or significant change: Winds: from the SW (230 degrees) at 10 MPH (9 knots; 4.6 m/s) Visibility: 6 or more sm (10 ...Weather radar, wind and waves forecast for kiters, surfers, paragliders, pilots, sailors and anyone else. Worldwide animated weather map, with easy to use layers and precise spot forecast. METAR, TAF and NOTAMs for any airport in the World. SYNOP codes from weather stations and buoys. Forecast models ECMWF, GFS, NAM and NEMS data at: 1735 utc 11 oct 2023. katl 111652z 30004kt 10sm few130 bkn160 ovc200 23/12 a2996 rmk ao2 slp139 virga ohd-alqds t02280122 $ katl 111548z 1116/1218 25005kt p6sm sct150 ovc250 fm112000 19005kt p6sm -ra sct025 ovc090 fm120100 15007kt p6sm -ra sct015 ovc030 fm120400 10012kt 6sm -ra br sct008 ovc015 prob30 1206/1212 2sm -ra br ovc005 fm121300 08013g23kt 6sm br sct008 ovc015Atlanta (KATL) ... Hartsfield–Jackson began with a five-year, rent-free lease on 287 acres that was an abandoned auto racetrack named The Atlanta Speedway. The ...KCVC 110335Z AUTO 00000KT 10SM CLR 18/13 A2989 RMK AO2. No TAF found for KCVC. KATL 110252Z 22005KT 10SM SCT200 BKN250 21/13 A2990 RMK AO2 SLP117 T02060128 51007 $. KATL 110159Z 1102/1206 23007KT P6SM FEW080 BKN200 BKN250. FM111200 24003KT P6SM OVC250. cyvr 230500z 09005kt 15sm few100 sct120 15/09 a2987 rmk ac1ac2 slp116 taf cyvr 230240z 2303/2406 vrb03kt p6sm sct100 sct240 becmg 2304/2306 10010kt fm230800 10010kt p6sm few050 bkn200 fm231200 10010kt p6sm sct050 bkn100 tempo 2312/2317 bkn050 fm231700 13012kt p6sm sct020 bkn060 tempo 2317/2320 6sm -shra br bkn020 fm232000 11012kt …METAR KATL 200452Z 13004KT 10SM BKN029 19/17 A3011 RMK AO2 SLP188 T01940167 402280161. The wind is from direction 130° with a speed of 4 kt. Visibility is 10 mi. The ceiling, broken or more, is 2,900 … <a href="honeywell-humidipro-manual.html">house gregg funeral home obituaries</a><a href="free-code-scanner-app.html">fcso.org booking and releasing</a> katl 180852z 31007kt 10sm clr 17/14 a2996 rmk ao2 slp138 t01720144 58002 $ katl 180928z 1809/1912 31007kt p6sm skc fm181700 32010kt p6sm skc fm190000 32005kt p6sm skc KORD 180851Z 28006KT 10SM FEW030 FEW060 13/11 A3003 RMK AO2 SLP168 T01280111 58001 $ KORD 180859Z 1809/1912 33005KT P6SM SCT050 FM182000 11006KT P6SM SCT060Impacts TAF Board. TAF Home. Plot. Data. Board. Info. For situational awareness. Not to be used for flight planning purposes. IDs: KATL - Atlanta/Hartsfield I, GA, US. Issued at 1124 UTC 03 Sep 2023. Updated at 1358 UTC 03 Sep 2023. Potential Impact: None: Slight: Moderate: High: Time 1352Z 03/14Z 03/15Z 03/16Z 03/17Z 03/18ZKATL (ATLANTA , GA, US) Text: KATL 262347Z 2700/2806 06009KT P6SM VCSH BKN012 BKN020 OVC060 : Forecast period: 0000 to 0500 UTC 27 April 2023 Forecast type: FROM: standard forecast or significant change Winds: from the ENE (60 degrees) at 10 MPH (9 knots; 4.6 m/s) Visibility: 6 or more miles (10+ km) Ceiling: Daily Weather Briefing. Prepared:10/12/23 8:20 PM by: CW. valid for 12 hours. FOR ATC PLANNING PURPOSES. A low pressure system over the Gulf will continue to produce IFR/MVFR conditions over AL/GA/SC, and IFR/LIFR conditions are also possible over NC after 09Z. VFR conditions are expected to continue over TN/VA, except …ZTL Airspace Summary / KATL TAF For ATC Planning Purposes Only. ZTL Airspace Summary: A weak front will continue to support isolated showers over AL/GA overnight. Expect mostly VFR conditions with patchy LIFR/IFR forming after 08z. Surface winds will west to southwest at 5kts or less. Flight Hazards: LGT-MOD Turbulence above FL260 over all of ...KATL - Hartsfield-Jackson Atlanta International METAR TAF KFTY - Fulton County Executive/Charlie Brown Field (9.7 NM) METAR TAF KPDK - Dekalb-Peachtree …Daily Weather Briefing. Prepared:10/12/23 8:20 PM by: CW. valid for 12 hours. FOR ATC PLANNING PURPOSES. A low pressure system over the Gulf will continue to produce IFR/MVFR conditions over AL/GA/SC, and IFR/LIFR conditions are also possible over NC after 09Z. VFR conditions are expected to continue over TN/VA, except …Show TAF board. IDs: Page loaded: 08:03 UTC | 01:03 AM Pacific | 02:03 AM Mountain | 03:03 AM Central | 04:03 AM Eastern. Aviation Weather Center Homepage provides comprehensive user-friendly aviation weather Text products and graphics.METAR for: KATL (Atlanta/Hartsfield I, GA, US) Text: KATL 011252Z 08008KT 9SM FEW007 BKN030 BKN046 19/17 A3026 RMK AO2 SLP240 MDT CU SW W T01940172 $Hartsfield-Jackson Atlanta International is a large airport in Georgia, United States. The airport is located at latitude 33.63662 and longitude -84.42802. The airport …  METAR &amp; TAF. Decodificador visual. Aeropuerto Internacional Hartsfield-Jackson KATL. Compartir Registrarse ¡Gratis! Iniciar sesión Configuración Modo oscuro. ... Info ; Pantalla completa Compartir. Actualizar. NOTAM Aeropuerto Internacional Hartsfield-Jackson (KATL) 23 marzo 17:31 LT 3wk . 03/448 (A2007/22) 23 mar. 2022 21:12 LTZTL Airspace Summary / KATL TAF For ATC Planning Purposes Only. ZTL Airspace Summary: A weak front will continue to support isolated showers over AL/GA overnight. Expect mostly VFR conditions with patchy LIFR/IFR forming after 08z. Surface winds will west to southwest at 5kts or less. Flight Hazards: LGT-MOD Turbulence above …Show TAF board. IDs: Page loaded: 08:03 UTC | 01:03 AM Pacific | 02:03 AM Mountain | 03:03 AM Central | 04:03 AM Eastern. Aviation Weather Center Homepage provides comprehensive user-friendly aviation weather Text products and graphics.Info For situational awareness. Not to be used for flight planning purposes. IDs: KATL - Atlanta/Hartsfield I, GA, US Issued at 1953 UTC 05 Aug 2022 Updated at 2006 UTC 05 Aug 2022 Potential Impact None Slight Moderate High Raw TAF KATL 051953Z 0520/0624 14006KT P6SM VCSH SCT040 SCT100 TEMPO 0521/0601 VRB15G25KT 4SM TSRA BKN035CB  Oct 6, 2023 · TAF for: KATL (Atlanta/Hartsfield I, GA, US) issued at 0148 UTC 06 Oct 2023. Text: KATL 060148Z 0602/0706 08005KT P6SM SCT150 BKN200. Forecast period: 0200 to 0900 UTC 06 October 2023. Forecast type: FROM: standard forecast or significant change. Oct 6, 2023 · TAF for: KATL (Atlanta/Hartsfield I, GA, US) issued at 0148 UTC 06 Oct 2023. Text: KATL 060148Z 0602/0706 08005KT P6SM SCT150 BKN200. Forecast period: 0200 to 0900 UTC 06 October 2023. Forecast type: FROM: standard forecast or significant change.  In practice, picking an airport with a TAF as an alternate is much easier. There is no requirement that you actually go to the alternate if you can’t make the destination. And with ADSB-In, you can monitor the weather while you fly, so you have a much better idea of what the weather is doing at your destination. You can divert to an alternate ...Updated at 1124 UTC 01 Oct 2023. NOTE: LAMP data beyond the time of the TAF data is denoted as LAMP in Type and colored magenta. For situational awareness. Not to be used for flight planning purposes. Aviation Weather Center Homepage provides comprehensive user-friendly aviation weather Text products and graphics. METAR Hartsfield-Jackson Atlanta International - KATL/ATL. Hartsfield-Jackson Atlanta International is a large airport in Georgia, United States. The airport is located at latitude 33.63662 and longitude -84.42802. The airport has 5 runways: 9L/27R, 8R/26L, 8L/26R, 9R/27L and 10/28.  23 มิ.ย. 2565 ... ... Metar !metardest - Destination Metar !insta - Instagram handle Hardware: Honeycomb Alpha Yoke Honeycomb Bravo Throttle Quadrant Thrustmaster ...  katl 122152z 05015g19kt 10sm bkn022 ovc030 19/14 a2983 rmk ao2 slp096 t01940144 $ katl 122157z 1222/1324 05015kt p6sm bkn022 ovc030 fm130000 08009kt p6sm sct025 bkn040 fm130700 07008kt p6sm vcsh sct008 bkn012 fm131300 08011kt 6sm -radz br bkn008 fm132200 08008kt 5sm -radz br ovc006. kceu 122154z auto 09005kt 10sm …NOTE: LAMP data beyond the time of the TAF data is denoted as LAMP in Type and colored magenta. Raw TAF KATL 120542Z 1206/1312 09012KT 5SM -RA BR SCT007 OVC010 TEMPO 1209/1213 4SM RA BR OVC005 FM121300 08014G24KT P6SM SCT005 OVC008 FM121700 08012KT P6SM BKN020 FM131000 08009KT P6SM VCSH SCT008 BKN012 Raw METAR KATL 120530Z 11011G19KT 4SM RA BR BKN008 OVC047 16/14 A2988 RMK AO2 P0025 T01560139 ...NOTE: LAMP data beyond the time of the TAF data is denoted as LAMP in Type and colored magenta. Raw TAF. KBTR 181120Z 1812/1912 03005KT P6SM SKC. Raw METAR. KBTR 181153Z 00000KT 10SM CLR 18/14 A3001 RMK AO2 SLP161 T01780139 10211 20172 53009. KBTR 181053Z 03003KT 10SM CLR 18/14 A2999 RMK AO2 SLP155 T01780144. KBTR 180953Z AUTO 00000KT 10SM CLR ...TAF for: KATL (Atlanta/Hartsfield I, GA, US) issued at 2326 UTC 01 Oct 2023: Text: KATL 012326Z 0200/0306 08007KT P6SM FEW050 SCT200 : Forecast period: 0000 to 0200 UTC 02 October 2023: Forecast type: FROM: standard forecast or significant change: Winds: from the E (80 degrees) at 8 MPH (7 knots; 3.6 m/s) Visibility: 6 or more sm (10+ km) Ceiling:  NOTE: LAMP data beyond the time of the TAF data is denoted as LAMP in Type and colored magenta. Raw TAF KPDX 250859Z 2509/2606 12011KT P6SM -RA SCT035 OVC060 FM252000 17013G22KT P6SM -RA SCT025 OVC050 FM260400 15008KT P6SM -RA OVC050 Raw METAR KPDX 250853Z 14006KT 10SM -RA SCT035 BKN045 OVC060 16/13 A2983 RMK AO2 SLP099 P0009 60020 T01560133 51008 $ KPDX 250753Z 12010KT 9SM -RA OVC060 16/13 ...ZTL Airspace Summary / KATL TAF For ATC Planning Purposes Only; ZTL Airspace Summary: Scattered showers will continue across southern portions of airspace through this afternoon; cells will move north to northwest at 5-10kts with tops to FL300. ... FTUS80 KATL 271727 KATL 271725Z 2718/2824 07010KT P6SM BKN025 OVC035 …data at: 1735 utc 11 oct 2023. katl 111652z 30004kt 10sm few130 bkn160 ovc200 23/12 a2996 rmk ao2 slp139 virga ohd-alqds t02280122 $ katl 111548z 1116/1218 25005kt p6sm sct150 ovc250 fm112000 19005kt p6sm -ra sct025 ovc090 fm120100 15007kt p6sm -ra sct015 ovc030 fm120400 10012kt 6sm -ra br sct008 ovc015 prob30 1206/1212 2sm -ra br ovc005 fm121300 08013g23kt 6sm br sct008 ovc015Raw TAF. KATL 051953Z 0520/0624 14006KT P6SM VCSH SCT040 SCT100. TEMPO 0521/0601 VRB15G25KT 4SM TSRA BKN035CB. FM060200 12005KT P6SM SCT040 SCT150. FM061100 11003KT P6SM FEW010 SCT025. FM061800 12006KT P6SM BKN035.  Unicom. 122.95 MHz. Unicom. Warning: Do not use this data for real-world aviation or navigation. No guarantee of current accuracy is given. Airport information for Hartsfield-Jackson Atlanta Intl (KATL) in , including runways, map, navaids, weather (METAR/TAF) and ATC frequencies. For flight simulation use only. METAR KATL 300852Z 32004KT 10SM FEW250 16/13 A2992 RMK AO2 SLP124 T01610133 55003 $. ... METAR TAF KHMP - Atlanta Speedway Airport (16 NM) METAR KPDK - Dekalb-Peachtree Airport (16 NM) METAR TAF KMGE - Dobbins Air Reserve Base (17 NM) METAR TAF. 30 May 04:52 LT 2mndHartsfield Jackson Atlanta International Airport (KATL) METAR Weather conditions on Thu, 05 Oct 2023 01:52:00 +0000 (6 min. ago): Present conditions: Dry Clouds: A few at 1676 …Weather radar, wind and waves forecast for kiters, surfers, paragliders, pilots, sailors and anyone else. Worldwide animated weather map, with easy to use layers and precise spot forecast. METAR, TAF and NOTAMs for any airport in the World. SYNOP codes from weather stations and buoys. Forecast models ECMWF, GFS, NAM and NEMS  TAF KATL 071723Z 0718/0824 33015G25KT P6SM FEW250 FM080000 33013KT P6SM SKC FM080500 33007KT P6SM SKC FM082300 30006KT P6SM SKC= Charlotte Douglas Intl (KCLT) TAF KCLT 071730Z 0718/0824 33010G18KT P6SM FEW050 FM080100 33006KT P6SM SKC FM081600 30007KT P6SM SKC= Washington Dulles Intl (KIAD) …Oct 12, 2023 · The airport is located at latitude 33.93875 and longitude -81.11937. The airport has 2 runways: 11/29 and 5/23. The ICAO airport code of this field is KCAE. The local airport ID (FAA LID) of this airport is CAE. The airport's IATA code is CAE. The airport is in the Jacksonville FIR . This aviation weather observation was made for Columbia Metro ... 1. Message Type METAR: routine weather report · 2. ICAO Identifier (4-letter) · 3. Issuance Time DDHHMMz (UTC) · 4. Wind · 5. Horizontal Visibility · 6. Present ...FM101900 03006KT P6SM FEW110. Raw METAR. KDEN 092153Z VRB05KT 10SM FEW100 SCT140 25/M05 A2992 RMK AO2 SLP069 VIRGA SW T02501050. KDEN 092053Z 12004KT 10SM FEW100 26/M04 A2993 RMK AO2 SLP072 T02561039 56024. KDEN 091953Z VRB03KT 10SM FEW100 26/M03 A2995 RMK AO2 SLP074 T02611033. METAR Board. A METAR (METeorological Aerodrome Report) is an observation and provides information about the current weather. A TAF (Terminal Area Forecast) provides a forecast for a longer period, for example 8, 24 or 36 hours. Both are prepared for aviation and contain weather information that pilots need. This is how you read a METAR PreparationSTA. ARR. DEP. Arr Time. Dep Time. No data available in table. Showing 0 to 0 of 0 entries. Previous Next.Search SAP Data elements. KZTLF is a standard DATA Element within the SAP ABAP dictionary and is associated with fields that store Purchasing Document information. Below is the list of data element attribute values including length, data type, description, domain, search help etc... also check the Contribute section for any additional notes ...NOTE: LAMP data beyond the time of the TAF data is denoted as LAMP in Type and colored magenta. Raw TAF KATL 090159Z 0902/1006 30005KT P6SM SKC FM091400 23006KT P6SM SKC FM091800 24011KT P6SM SKC FM100000 23006KT P6SM SKC METAR Board Radar Display Forecast Discussion KATL 090159Z 0902/1006 30005KT …  IDs: Format: Raw Decoded Include TAF. Data at: 1007 UTC 11 Oct 2023. Region: TOP. KATL 110952Z 00000KT 10SM BKN200 BKN250 18/13 A2991 RMK AO2 SLP121 T01780133 $. KBOS 110954Z 21004KT 10SM BKN100 …Updated at 2117 UTC 03 Oct 2023. NOTE: LAMP data beyond the time of the TAF data is denoted as LAMP in Type and colored magenta. For situational awareness. Not to be used for flight planning purposes. Aviation Weather Center Homepage provides comprehensive user-friendly aviation weather Text products and graphics.data at: 1600 utc 13 oct 2023. katl 131552z 10008kt 2sm -ra br ovc008 17/16 a2995 rmk ao2 slp137 vis s 1 1/2 cig 006v010 p0000 t01720156 $ katl 131554z 1316/1418 08011kt p6sm vcsh bkn008 ovc020 tempo 1316/1319 3sm -radz br ovc006 fm131900 09010kt 6sm -ra br ovc008 fm140400 06006kt 2sm -radz br bkn005 fm140800 32004kt 2sm -radz br bkn004 fm141500 27008kt p6sm bkn01533.6367, -84.4281. Local time. Oct 25, 2022 01:54. Change. Hartsfield Jackson Atlanta International Airport is a large airport in Fulton County, Georgia, United States. The airport has 5 runways: 8L/26R, 8R/26L, 9L/27R, 9R/27L and 10/28. The ICAO designator of this field is KATL and it's IATA code is ATL. Nearby other airfields are Coleman ... TAF for: KATL (Atlanta/Hartsfield I, GA, US) issued at 2326 UTC 01 Oct 2023: Text: KATL 012326Z 0200/0306 08007KT P6SM FEW050 SCT200 : Forecast period: 0000 to 0200 UTC 02 October 2023: Forecast type: FROM: standard forecast or significant change: Winds: from the E (80 degrees) at 8 MPH (7 knots; 3.6 m/s)  NOTE: LAMP data beyond the time of the TAF data is denoted as LAMP in Type and colored magenta. Raw TAF KLAX 122100Z 1221/1324 26011KT P6SM FEW250 FM130200 25006KT P6SM SKC FM130500 VRB03KT P6SM SKC FM130800 09004KT P6SM SCT005 FM131200 09005KT 5SM BR BKN006 FM131600 26005KT P6SM SCT006 FM132000 26012KT P6SM SKC Raw METAR KLAX 122053Z 26011KT 10SM FEW250 23/16 A2973 RMK AO2 SLP068 T02280156 ...[Controlled] KATL,ATL (Atlanta,Georgia,US) Concrete 3,042m. Information on this website may be inaccurate or outdated and is intended for Flight Simulator navigating or for Pre-flight Training purposes only!1. Message Type METAR: routine weather report · 2. ICAO Identifier (4-letter) · 3. Issuance Time DDHHMMz (UTC) · 4. Wind · 5. Horizontal Visibility · 6. Present ...  Forecast. TAF: KATL 011720Z 0118/0224 08010KT P6SM SCT040 FM020000 08004KT P6SM FEW250 FM021500 08008KT P6SM SCT040. Weather observations and forecasts of more than 4000 airports (METAR and TAF reports). The available stations are represented by yellow and red dots on the map. Hover mouse over dot to see the name of the station. KATL - Atlanta/Hartsfield I, GA, US. Updated at: 2100 UTC 08 Sep 2023 Latest TAF at: 1945 UTC 08 Sep 2023. TAF Board. Time 2052Z 08/21Z 08/22Z 08/23Z 09/00Z 09/01Z 09/02Z Oct 12, 2023 · METAR Charlotte/Douglas International Airport - KCLT/CLT. Charlotte/Douglas International Airport is a large airport in North Carolina, United States. The airport is located at latitude 35.21382 and longitude -80.94851. The airport has 4 runways: 18C/36C, 5/23, 18L/36R and 18R/36L. METAR for: KATL (Atlanta/Hartsfield I, GA, US) Text: KATL 011252Z 08008KT 9SM FEW007 BKN030 BKN046 19/17 A3026 RMK AO2 SLP240 MDT CU SW W T01940172 $data at: 1600 utc 13 oct 2023. katl 131552z 10008kt 2sm -ra br ovc008 17/16 a2995 rmk ao2 slp137 vis s 1 1/2 cig 006v010 p0000 t01720156 $ katl 131554z 1316/1418 08011kt p6sm vcsh bkn008 ovc020 tempo 1316/1319 3sm -radz br ovc006 fm131900 09010kt 6sm -ra br ovc008 fm140400 06006kt 2sm -radz br bkn005 fm140800 32004kt 2sm -radz br bkn004 fm141500 27008kt p6sm bkn015  TAF ; NOTAM ; History ; Airport ; Statistics ; Livestream Show on map Embed New ... KATL B) 2309120954 E) ATL TWY SG, SJ, TWY SC BTN TWY SJ1 AND TWY SG CLSD CANCELED September 12, 2023 05:54 - September 15, 2023 05:54 LT KATL · A6496/23. Active. 0.4 NM 6h.METAR Amsterdam Airport Schiphol - EHAM/AMS. Amsterdam Airport Schiphol is a large airport in North Holland, Netherlands. The airport is located at latitude 52.31488 and longitude 4.75807. The airport has 6 runways: 18L/36R, 18C/36C, 18R/36L, 4/22, 6/24 and 9/27. The ICAO airport code of this field is EHAM.KATL (ATLANTA , GA, US) Text: KATL 281734Z 2818/2924 09008KT P6SM FEW030 FEW250 : Forecast period: 1800 UTC 28 September 2023 to 0700 UTC 29 September 2023 Forecast type: FROM: standard forecast or significant change Winds: from the E (90 degrees) at 9 MPH (8 knots; 4.1 m/s) Visibility: rcss 030300z 27003kt 230v300 9000 -dz few010 bkn025 bkn040 25/23 q1010 nosig rmk a2984 ra amt 0.2mm taf rcss 022300z 0300/0324 08005kt 9999 few015 bkn032 tempo 0300/0306 5000 shra few010 few015tcu bkn020 bkn040 tempo 0306/0312 08010kt 4000 shra ... katl 030252z 07009kt 10sm clr 23/14 a3018 rmk ao2 slp210 t02280139 51008 $ …TAF KATL 121720Z 121818 20012KT 5SM HZ BKN030 FM2000 3SM TSRA OVC025CB FM2200 33015G20KT P6SM BKN015 OVC040 BECMG 0608 02008KT BKN040 BECMG 1012 00000KT P6SM CLR= No, because the ceiling and visibility are forecast to be at or above 2,000 feet and 3 miles within 1 hour before to 1 hour after the ETA. When a pilot …Temperature 16 °C Humidity 82 % Pressure 1015 hPa Visibility: 16.1 km Clear sky Change units METAR: KATL 070952Z 32009KT 10SM CLR 16/13 A2998 RMK AO2 SLP147 T01560128 $ Time: 06:47 (10:47 UTC) Forecast The report was made 1 hour and 17 minutes ago, at 09:30 UTC Forecast valid from 07 at 10 UTC to 08 at 12 UTC Wind 9 kt from the NorthwestMETAR KATL 181952Z 32010KT 10SM SCT055 32/18 A2998 RMK AO2 SLP140 MDT CU N-E-S T03220178 $. ... KFTY - Fulton County Executive/Charlie Brown Field (9.7 NM) METAR TAF KHMP - Atlanta Speedway Airport (16 NM) METAR KPDK - Dekalb-Peachtree Airport (16 NM) METAR TAF KMGE - Dobbins Air Reserve Base (17 …Oct 12, 2023 · METAR Charlotte/Douglas International Airport - KCLT/CLT. Charlotte/Douglas International Airport is a large airport in North Carolina, United States. The airport is located at latitude 35.21382 and longitude -80.94851. The airport has 4 runways: 18C/36C, 5/23, 18L/36R and 18R/36L. View the flying weather (METAR and TAF) for Hartsfield-Jackson Atlanta International, Atlanta, United States. Hartsfield-Jackson Atlanta International KATL · Georgia, United States. Share Sign up Free! ... METAR KATL 180552Z 26003KT 5SM HZ FU CLR 24/18 A3006 RMK AO2 SLP169 T02440183 10311 20239 56003 : 00:52: V. 25 …METAR KATL 040052Z 32008KT 10SM CLR 17/03 A2989 RMK AO2 SLP117 T01720033. ... KFTY - Fulton County Executive/Charlie Brown Field (9.7 NM) METAR TAF KHMP - Atlanta Speedway Airport (16 NM) METAR KPDK - Dekalb-Peachtree Airport (16 NM) METAR TAF KMGE - Dobbins Air Reserve Base (17 NM) METAR TAF.ZTL Airspace Summary / KATL TAF For ATC Planning Purposes Only; ZTL Airspace Summary: Scattered showers will continue across southern portions of airspace through this afternoon; cells will move north to northwest at 5-10kts with tops to FL300. ... FTUS80 KATL 271727 KATL 271725Z 2718/2824 07010KT P6SM BKN025 OVC035 …Atlanta Hartsfield-Jackson International Airport, (ATL/KATL), United States - View the latest KATL METAR reports to find out the current weather conditions ...METAR Home. Plot. Data. Board. Info. IDs: Format: Raw Decoded Include TAF. Data at: 1914 UTC 12 Oct 2023. KATL 121852Z 08012G21KT 10SM OVC021 19/14 A2980 RMK AO2 SLP086 T01940144 $. KATL 121730Z 1218/1324 07015G24KT P6SM OVC015.  taf katl 121720z 121818 20012kt 5sm hz bkn030 fm2000 3sm tsra ovc025cb fm2200 33015g20kt p6sm bkn015 ovc040 becmg 0608 02008kt bkn 040 becmg 1012 00000kt p6sm clr= No, because the ceiling and visibility are forecast to be at or above 2,000 feet and 3 miles within 1 hour before to 1 hour after the ETA.Weather radar, wind and waves forecast for kiters, surfers, paragliders, pilots, sailors and anyone else. Worldwide animated weather map, with easy to use layers and precise spot forecast. METAR, TAF and NOTAMs for any airport in the World. SYNOP codes from weather stations and buoys. Forecast models ECMWF, GFS, NAM and NEMSTAF Hartsfield Jackson Atlanta International Airport KATL Atlanta, Georgia, United States ... TAF KATL 030331Z 0304/0406 07006KT P6SM SKC. Wind. 070 ...Info For situational awareness. Not to be used for flight planning purposes. IDs: KATL - Atlanta/Hartsfield I, GA, US Issued at 1953 UTC 05 Aug 2022 Updated at 2006 UTC 05 Aug 2022 Potential Impact None Slight Moderate High Raw TAF KATL 051953Z 0520/0624 14006KT P6SM VCSH SCT040 SCT100 TEMPO 0521/0601 VRB15G25KT 4SM TSRA BKN035CB  METAR for: KATL (Atlanta/Hartsfield I, GA, US) Text: KATL 011252Z 08008KT 9SM FEW007 BKN030 BKN046 19/17 A3026 RMK AO2 SLP240 MDT CU SW W T01940172 $Format: Raw Decoded Include METAR. Data at: 1843 UTC 06 Oct 2023. PANC 061753Z 00000KT 10SM FEW003 BKN080 BKN110 05/04 A2968 RMK AO2 SLP052 T00500039 10050 20033 53014. PANC 061735Z 0618/0724 31005KT P6SM VCSH BKN080. FM070000 33007KT P6SM -SHRA OVC050. PAED 061755Z 01009KT 10SM FEW005 SCT080 …KATL METAR TAF AREA METARS AREA TAFS. KATL. UTC. Hartsfield Jackson Atlanta International Airport Atlanta, Georgia, United States. METAR - Current.  Find the current and forecasted weather conditions and forecasts for KATL (Atlanta/Hartsfield I, GA, US) from the Aviation Weather Center (AWC). See the METAR …May 8, 2023 · METAR Hartsfield-Jackson Atlanta International - KATL/ATL. Hartsfield-Jackson Atlanta International is a large airport in Georgia, United States. The airport is located at latitude 33.63662 and longitude -84.42802. The airport has 5 runways: 9L/27R, 8R/26L, 8L/26R, 9R/27L and 10/28.  Format: Raw Decoded Include METAR. Data at: 1843 UTC 06 Oct 2023. PANC 061753Z 00000KT 10SM FEW003 BKN080 BKN110 05/04 A2968 RMK AO2 SLP052 T00500039 10050 20033 53014. PANC 061735Z 0618/0724 31005KT P6SM VCSH BKN080. FM070000 33007KT P6SM -SHRA OVC050. PAED 061755Z 01009KT 10SM FEW005 SCT080 …Weather radar, wind and waves forecast for kiters, surfers, paragliders, pilots, sailors and anyone else. Worldwide animated weather map, with easy to use layers and precise spot forecast. METAR, TAF and NOTAMs for any airport in the World. SYNOP codes from weather stations and buoys. Forecast models ECMWF, GFS, NAM and NEMSKATL - Atlanta/Hartsfield I, GA, US Issued at 1125 UTC 05 Oct 2023 Updated at 1253 UTC 05 Oct 2023 Potential Impact None Slight Moderate High NOTE: LAMP data beyond the time of the TAF data is denoted as LAMP in Type and colored magenta. Raw TAF KATL 051125Z 0512/0618 08006KT P6SM SCT250 FM051700 12006KT P6SM FEW040 SCT250 Format: Raw Decoded Include METAR. Data at: 1011 UTC 09 Oct 2023. RCTP 091000Z 04016G26KT 360V070 9999 -RA SCT007 BKN009 BKN015 24/23 Q1016 WS R05R NOSIG RMK A3001. TAF RCTP 090500Z 0906/1012 04020KT 9999 SCT006 BKN008 BKN015. TEMPO 0906/0912 SCT007 BKN012 BKN025. TEMPO 0918/0924 5000 RA SCT003 BKN005 BKN012.Hartsfield-Jackson Intl Airport (Atlanta, GA) [KATL/ATL] information, location, approach plates. Products. Data Products. AeroAPI Flight data API with on-demand flight status and flight tracking data. FlightAware Firehose Streaming flight data feed for enterprise integrations with real-time, historical and predictive flight data.KATL AIRPORT DIAGRAM (APD) - FlightAware. Browse By State. Get Airport Information. Valid from 01-Oct-2023 to 29-Oct-2023. Always verify dates on each chart and consult appropriate NOTAMs. Ensure that all appropriate charts are included that are necessary for navigation. All data is published by FAA/NACO and is not warranted by FlightAware.AW-005 C-172 Checkout - Aerowood AviationNOTE: LAMP data beyond the time of the TAF data is denoted as LAMP in Type and colored magenta. Raw TAF. KAVL 190531Z 1906/2006 VRB02KT 6SM BR FEW250. FM190800 VRB03KT 1SM BR BKN006. TEMPO 1908/1912 1/2SM FG OVC003. FM191300 VRB03KT P6SM FEW060. FM191700 17006KT P6SM FEW060. FM200000 VRB02KT P6SM FEW060. Raw METAR. KATL: Hartsfield - Jackson Atlanta International Airport Atlanta, Georgia, USA: GOING TO ATLANTA? Reserve a Hotel Room: ... TAF; KATL : 120737Z 1208/1312 09012KT 6SM -RA BR SCT007 OVC010 TEMPO 1209/1213 4SM RA BR OVC005 FM121300 08014G24KT P6SM SCT005 OVC008 FM121700 08012KT P6SM BKN020 FM131000 08009KT P6SM VCSH SCT008 BKN012Forecast. TAF: KATL 011720Z 0118/0224 08010KT P6SM SCT040 FM020000 08004KT P6SM FEW250 FM021500 08008KT P6SM SCT040. Weather observations and forecasts of more than 4000 airports (METAR and TAF reports). The available stations are represented by yellow and red dots on the map. Hover mouse over dot to see the name of the station.  KATL - Atlanta/Hartsfield I, GA, US. Issued at 1720 UTC 25 Sep 2023. Updated at 1933 UTC 25 Sep 2023. Potential Impact: None: Slight: Moderate: High: Time &lt;&lt;26/08Z 26/09Z 26/10Z 26/11Z 26/12Z 26/13Z ... NOTE: LAMP data beyond the time of the TAF data is denoted as LAMP in Type and colored magenta.E6B, NavLog Calculator, Weather Reports, METAR, TAF, Wind Components, Instrument Simulator, Weight and Balance, Pressure Altitude, Density Altitude, True Air Speed ...NOTE: LAMP data beyond the time of the TAF data is denoted as LAMP in Type and colored magenta. Raw TAF KDAB 101720Z 1018/1118 06009KT P6SM FEW035 SCT150 BKN250 FM110500 VRB03KT P6SM FEW030 SCT140 BKN250 FM111500 07008KT P6SM VCSH SCT025 BKN090 BKN150 Raw METAR KDAB 101753Z 03006KT 10SM FEW035 BKN200 27/17 A2994 RMK AO2 SLP139 T02670167 10272 20183 58016 KDAB 101653Z 05008KT 10SM FEW035 BKN200 ...  Visibilité: 10 km. Nuages fragmentés à une hauteur de 20000 ft. TAF: KATL 050132Z 0502/0606 11006KT P6SM BKN200. Observations et prévisions météorologiques de plus …METAR Hartsfield-Jackson Atlanta International - KATL/ATL. Hartsfield-Jackson Atlanta International is a large airport in Georgia, United States. The airport is located at latitude 33.63662 and longitude -84.42802. The airport has 5 runways: 9L/27R, 8R/26L, 8L/26R, 9R/27L and 10/28.Not to be used for flight planning purposes. IDs: KATL - Atlanta/Hartsfield I, GA, US. Issued at 2340 UTC ...TAF for: KATL (Atlanta/Hartsfield I, GA, US) issued at 0523 UTC 25 Oct 2022: Text: KATL 250523Z 2506/2612 12004KT P6SM SCT200 : Forecast period: 0600 to 1500 UTC 25 October 2022: Forecast type: FROM: standard forecast or significant change: Winds: from the ESE (120 degrees) at 5 MPH (4 knots; 2.1 m/s)  Hartsfield-Jackson Atlanta International is a large airport in Georgia, United States. The airport is located at latitude 33.63662 and longitude -84.42802. The airport has 5 runways: 9L/27R, 8R/26L, 8L/26R, 9R/27L and 10/28. The ICAO airport code of this field is KATL. The local airport ID (FAA LID) of this airport is ATL.Format: Raw Decoded Include METAR. Data at: 1843 UTC 06 Oct 2023. PANC 061753Z 00000KT 10SM FEW003 BKN080 BKN110 05/04 A2968 RMK AO2 SLP052 T00500039 10050 20033 53014. PANC 061735Z 0618/0724 31005KT P6SM VCSH BKN080. FM070000 33007KT P6SM -SHRA OVC050. PAED 061755Z 01009KT 10SM FEW005 SCT080 BKN100 05/03 A2968 RMK AO2A SLP048 T00470030 10047 ...Forecast for: KIAH (HOUSTON/INTNL , TX, US) Text: KIAH 091720Z 0918/1024 16007KT P6SM FEW180 FEW250 : Forecast period: 1800 UTC 09 October 2023 to 0200 UTC 10 October 2023NOTE: LAMP data beyond the time of the TAF data is denoted as LAMP in Type and colored magenta. Raw TAF KPDX 250859Z 2509/2606 12011KT P6SM -RA SCT035 OVC060 FM252000 17013G22KT P6SM -RA SCT025 OVC050 FM260400 15008KT P6SM -RA OVC050 Raw METAR KPDX 250853Z 14006KT 10SM -RA SCT035 BKN045 OVC060 16/13 A2983 RMK AO2 SLP099 P0009 60020 T01560133 51008 $ KPDX 250753Z 12010KT 9SM -RA OVC060 16/13 ...Impacts TAF Board. TAF Home. Plot. Data. Board. Info. For situational awareness. Not to be used for flight planning purposes. IDs: KATL - Atlanta/Hartsfield I, GA, US. Issued at 0933 UTC 22 Apr 2023. Updated at 1050 UTC 22 Apr 2023. Potential Impact: None: Slight: Moderate: High: Time &lt;&lt;22/23Z 23/00Z 23/01Z 23/02Z 23/03ZOct 8, 2023 · TAF for: KATL (Atlanta/Hartsfield I, GA, US) issued at 1559 UTC 08 Oct 2023: Text: KATL 081559Z 0816/0918 33013KT P6SM FEW200 : Forecast period: 1600 to 2300 UTC 08 October 2023: Forecast type: FROM: standard forecast or significant change: Winds: from the NNW (330 degrees) at 15 MPH (13 knots; 6.7 m/s) Visibility: 6 or more sm (10+ km) Ceiling: Prepared:10/4/23 12:20 PM by: valid for 12 hours. FOR ATC PLANNING PURPOSES. VFR conditions will prevail across ZTL, with high pressure over the airspace. Surface winds will be out of the N-E at 4-8 kts. Flight Hazards: LGT-MOD turbulence above FL310 S/central ZTL. Go to KATL TAF TDA Go to KCLT TAF TDA. ATL Convective Gates CLT Convective Gates.taf katl 121720z 121818 20012kt 5sm hz bkn030 fm2000 3sm tsra ovc025cb fm2200 33015g20kt p6sm bkn015 ovc040 becmg 0608 02008kt bkn 040 becmg 1012 00000kt p6sm clr= No, because the ceiling and visibility are forecast to be at or above 2,000 feet and 3 miles within 1 hour before to 1 hour after the ETA. View the flying weather (METAR and TAF) for Hartsfield-Jackson Atlanta International, Atlanta, United States. Hartsfield-Jackson Atlanta International KATL · Georgia, United States. Share Sign up Free! ... METAR KATL 180552Z 26003KT 5SM HZ FU CLR 24/18 A3006 RMK AO2 SLP169 T02440183 10311 20239 56003 : 00:52: V. 25 …KATL AIRPORT DIAGRAM (APD) - FlightAware. Browse By State. Get Airport Information. Valid from 01-Oct-2023 to 29-Oct-2023. Always verify dates on each chart and consult appropriate NOTAMs. Ensure that all appropriate charts are included that are necessary for navigation. All data is published by FAA/NACO and is not warranted by FlightAware.KATL - Atlanta/Hartsfield I, GA, US Issued at 0733 UTC 25 Aug 2023 Updated at 0817 UTC 25 Aug 2023 Potential Impact None Slight Moderate High NOTE: LAMP data beyond the …TAF for: KATL (Atlanta/Hartsfield I, GA, US) issued at 0332 UTC 15 Jun 2023: Text: KATL 150332Z 1504/1606 20007KT P6SM SCT007 BKN050 : Forecast period: 0400 to 0800 UTC 15 June 2023: Forecast type: FROM: standard forecast or significant change: Winds: from the SSW (200 degrees) at 8 MPH (7 knots; 3.6 m/s)Format: Raw Decoded Include METAR. Data at: 1011 UTC 09 Oct 2023. RCTP 091000Z 04016G26KT 360V070 9999 -RA SCT007 BKN009 BKN015 24/23 Q1016 WS R05R NOSIG RMK A3001. TAF RCTP 090500Z 0906/1012 04020KT 9999 SCT006 BKN008 BKN015. TEMPO 0906/0912 SCT007 BKN012 BKN025. TEMPO 0918/0924 5000 RA SCT003 …data at: 2323 utc 11 aug 2023. rctp 112300z 13004kt 9999 few015 sct025 bkn150 28/25 q1005 nosig rmk a2968 rctp 112230z 15003kt 120v180 9999 few020 bkn180 27/25 q1005 nosig rmk a2968 rctp 112200z 15005kt 9999 few020 bkn180 26/24 q1005 nosig rmk a2968 rctp 112130z 15006kt 9999 few020 bkn180 26/24 q1004 nosig rmk a2967 rctp 112100z …NOTAM KATL · Hartsfield-Jackson Atlanta International. 12:17 LT. 16m.  Impacts TAF Board. TAF Home. Plot. Data. Board. Info. For situational awareness. Not to be used for flight planning purposes. IDs: KATL - Atlanta/Hartsfield I, GA, US. Issued at 1808 UTC 28 Jul 2023. Updated at 1834 UTC 28 Jul 2023. Potential Impact: None: Slight: Moderate: High: Time 1752Z 28/19Z 28/20Z 28/21Z 28/22Z 28/23Z  TAF: KATL 011720Z 0118/0224 08010KT P6SM SCT040 FM020000 08004KT P6SM FEW250 FM021500 08008KT P6SM SCT040. Weather observations and forecasts of …TAF for: KVPS (Valparaiso/Eglin AFB, FL, US) issued at 0100 UTC 05 Jul 2023: Text: TAF KVPS 050100Z 0501/0607 23009KT 9999 BKN030 QNH2999INS : Forecast period: 0100 to 1100 UTC 05 July 2023: Forecast type: FROM: standard forecast or significant change: Winds: from the SW (230 degrees) at 10 MPH (9 knots; 4.6 m/s)View the flying weather (METAR and TAF) for Hartsfield-Jackson Atlanta International, Atlanta, United States. Hartsfield-Jackson Atlanta International KATL · Georgia, United States. Share Sign up Free! ... METAR KATL 180552Z 26003KT 5SM HZ FU CLR 24/18 A3006 RMK AO2 SLP169 T02440183 10311 20239 56003 : 00:52: V. 25 …KATL 120752Z 09010KT 8SM -RA BKN007 BKN015 OVC050 16/14 A2980 RMK AO2 SLP084 CIG 006V009 P0004 T01560139 $ Conditions at: KATL (ATLANTA , GA, US) observed 0752 UTC 12 October 2023 Temperature: 15.6°C (60°F) Dewpoint: 13.9°C (57°F) [RH = 90%] Pressure (altimeter): 29.80 inches Hg (1009.2 mb) KATL - Atlanta/Hartsfield I, GA, US Issued at 0733 UTC 25 Aug 2023 Updated at 0817 UTC 25 Aug 2023 Potential Impact None Slight Moderate High NOTE: LAMP data beyond the …katl 121952z 07016kt 10sm bkn023 ovc030 20/14 a2980 rmk ao2 slp086 t02000139 $ katl 121944z 1220/1324 08012g21kt p6sm bkn025 fm130000 08009kt p6sm sct025 bkn040 fm130700 07008kt p6sm vcsh sct008 bkn012 fm131300 08011kt 6sm -radz br bkn008 fm132200 08008kt 5sm -radz br ovc006TAF for: KOMA (Omaha/Eppley Fld, NE, US) issued at 0520 UTC 11 Oct 2023: Text: KOMA 110520Z 1106/1206 11009KT P6SM SCT080 : Forecast period: 0600 to 1800 UTC 11 October 2023: Forecast type: FROM: standard forecast or significant change: Winds: from the ESE (110 degrees) at 10 MPH (9 knots; 4.6 m/s) Visibility: 6 or more sm (10+ km) Ceiling:katl 102152z 22013g22kt 10sm few060 few150 bkn200 bkn250 25/12 a2986 rmk ao2 slp105 t02500122 $ current weather conditions at katl. vfr 21:52:00 10-10-23. ... taf. katl 101952z 1020/1124 21013kt p6sm few050 sct150 sct250 fm110200 24004kt p6sm sct150 bkn250 fm112100 19006kt p6sm -ra bkn050 ovc100.Not to be used for flight planning purposes. IDs: KATL - Atlanta/Hartsfield I, GA, US. Issued at 2340 UTC ...Below are listed examples for each of the data API scripts. You can also use the API builder to construct your own requests. METARs. TAFs. PIREPs. AIRMET/SIGMET. Intl SIGMET. G-AIRMET. OCONUS FAs.NOTE: LAMP data beyond the time of the TAF data is denoted as LAMP in Type and colored magenta. Raw TAF KATL 230333Z 2304/2406 28004KT P6SM FEW090 SCT200 FM231600 30006KT P6SM SCT040 FM240200 33005KT P6SM SCT150 METAR Board Radar Display Forecast Discussion KATL 230333Z 2304/2406 28004KT P6SM FEW090 …METAR KATL 101852Z VRB04KT 10SM SCT050 SCT180 BKN250 28/16 A3010 RMK AO2 SLP183 T02780156. There is little or no wind from a variable direction. Visibility is 10 mi. The ceiling, broken or more, is 25,000 ft. …NOTAM KATL · Hartsfield-Jackson Atlanta International. 12:17 LT. 16m.Oct 5, 2023 · taf; katl : 120737z 1208/1312 09012kt 6sm -ra br sct007 ovc010 tempo 1209/1213 4sm ra br ovc005 fm121300 08014g24kt p6sm sct005 ovc008 fm121700 08012kt p6sm bkn020 ...  TAF KATL 121720Z 121818 20012KT 5SM HZ BKN030 FM2000 3SM TSRA OVC025CB FM2200 33015G20KT P6SM BKN015 OVC040 BECMG 0608 02008KT BKN040 BECMG 1012 00000KT P6SM CLR= No, because the ceiling and visibility are forecast to be at or above 2,000 feet and 3 miles within 1 hour before to 1 hour after the ETA. When a pilot …METAR KATL 032352Z 00000KT 10SM CLR 25/12 A3012 RMK AO2 SLP194 T02500122 10289 ... TAF KATL. Raw Text. KATL 032322Z 0400/0506 10005KT P6SM SKC FM041400 09007KT ...Impacts TAF Board. TAF Home. Plot. Data. Board. Info. For situational awareness. Not to be used for flight planning purposes. IDs: KATL - Atlanta/Hartsfield I, GA, US. Issued at 0931 UTC 01 Sep 2023. Updated at 1107 UTC 01 Sep 2023. Potential Impact: None: Slight: Moderate: High: Time 1052Z 01/04Z 01/05Z 01/06Z 01/07Z 01/08Zmmun 260246z 12005kt 7sm skc 27/25 a2995 rmk slp143 52013 923 ci taf mmun 252335z 2600/2700 16012kt p6sm sct015 bkn250 tx32/2619z tn21/2612z tempo 2600/2604 bkn015cb fm260500 00000kt p6sm sct015 ... katl 260252z 01009kt 10sm bkn200 bkn250 27/12 a3008 rmk ao2 slp175 t02670117 51014 $ katl 260208z 2602/2706 33006kt p6sm few120 …Impacts TAF Board. TAF Home. Plot. Data. Board. Info. For situational awareness. Not to be used for flight planning purposes. IDs: KATL - Atlanta/Hartsfield I, GA, US. Issued at 1957 UTC 11 Feb 2023. Updated at 2032 UTC 11 Feb 2023. Potential Impact: None: Slight: Moderate: High: Time &lt;&lt;12/21Z 12/22Z 12/23Z 13/00Z 13/01ZTAF for: KATL (Atlanta/Hartsfield I, GA, US) issued at 0148 UTC 06 Oct 2023: Text: KATL 060148Z 0602/0706 08005KT P6SM SCT150 BKN200 : Forecast period: 0200 to 0900 UTC 06 October 2023: Forecast type: FROM: standard forecast or significant change: Winds: from the E (80 degrees) at 6 MPH (5 knots; 2.6 m/s) Visibility: 6 or more …  KCVC 110335Z AUTO 00000KT 10SM CLR 18/13 A2989 RMK AO2. No TAF found for KCVC. KATL 110252Z 22005KT 10SM SCT200 BKN250 21/13 A2990 RMK AO2 SLP117 T02060128 51007 $. KATL 110159Z 1102/1206 23007KT P6SM FEW080 BKN200 BKN250. FM111200 24003KT P6SM OVC250.Raw TAF. KATL 210804Z 2108/2212 09006KT P6SM FEW050 BKN080. FM211600 07010KT P6SM SCT040. FM220300 10007KT P6SM SCT250. FM220900 06006KT P6SM BKN250. Raw METAR. KATL 210752Z 08006KT 10SM FEW045 SCT250 19/15 A3014 RMK AO2 SLP196 T01940150. KATL 210652Z 07005KT 10SM BKN070 BKN250 21/16 A3014 RMK AO2 SLP196 T02110156. KLAL 211235Z AUTO 01005KT 5SM BR OVC002 22/22 A3001 RMK AO2 T02220222. METAR Board. Radar Display. Forecast Discussion. For situational awareness. Not to be used for flight planning purposes. Aviation Weather Center Homepage provides comprehensive user-friendly aviation weather Text products and graphics.  KLAL 211235Z AUTO 01005KT 5SM BR OVC002 22/22 A3001 RMK AO2 T02220222. METAR Board. Radar Display. Forecast Discussion. For situational awareness. Not to be used for flight planning purposes. Aviation Weather Center Homepage provides comprehensive user-friendly aviation weather Text products and graphics.KATL: Hartsfield - Jackson Atlanta International Airport Atlanta, Georgia, USA: GOING TO ATLANTA? Reserve a Hotel Room: ... TAF; KATL : 122157Z 1222/1324 05015KT P6SM BKN022 OVC030 FM130000 08009KT P6SM SCT025 BKN040 FM130700 07008KT P6SM VCSH SCT008 BKN012 FM131300 08011KT 6SM -RADZ BR BKN008 …METAR KATL 072039Z 24010G23KT 10SM TS FEW042CB SCT080 BKN200 BKN250 33/23 A2994 RMK AO2 LTG DSNT W-NE TSB34 OCNL LTGICCG NW-N TS NW-N MOV E CB DSNT NW-NE T03330233. Current weather is thunderstorms .The wind is from direction 240° with a speed of 10 kt. Visibility is 10 mi. The ceiling, broken or more, …  NOTE: LAMP data beyond the time of the TAF data is denoted as LAMP in Type and colored magenta. Raw TAF KATL 090159Z 0902/1006 30005KT P6SM SKC FM091400 23006KT P6SM SKC FM091800 24011KT P6SM SKC FM100000 23006KT P6SM SKC METAR Board Radar Display Forecast Discussion KATL 090159Z 0902/1006 30005KT …NOTE: LAMP data beyond the time of the TAF data is denoted as LAMP in Type and colored magenta. Raw TAF KLAX 122100Z 1221/1324 26011KT P6SM FEW250 FM130200 25006KT P6SM SKC FM130500 VRB03KT P6SM SKC FM130800 09004KT P6SM SCT005 FM131200 09005KT 5SM BR BKN006 FM131600 26005KT P6SM SCT006 FM132000 26012KT P6SM SKC Raw METAR KLAX 122053Z 26011KT 10SM FEW250 23/16 A2973 RMK AO2 SLP068 T02280156 ... KCVC 110335Z AUTO 00000KT 10SM CLR 18/13 A2989 RMK AO2. No TAF found for KCVC. KATL 110252Z 22005KT 10SM SCT200 BKN250 21/13 A2990 RMK AO2 SLP117 T02060128 51007 $. KATL 110159Z 1102/1206 23007KT P6SM FEW080 BKN200 BKN250. FM111200 24003KT P6SM OVC250.ZTL Airspace Summary / KATL TAF For ATC Planning Purposes Only. ZTL Airspace Summary: A weak front will continue to support isolated showers over AL/GA overnight. Expect mostly VFR conditions with patchy LIFR/IFR forming after 08z. Surface winds will west to southwest at 5kts or less. Flight Hazards: LGT-MOD Turbulence above FL260 over all of ...data at: 1735 utc 11 oct 2023. katl 111652z 30004kt 10sm few130 bkn160 ovc200 23/12 a2996 rmk ao2 slp139 virga ohd-alqds t02280122 $ katl 111548z 1116/1218 25005kt p6sm sct150 ovc250 fm112000 19005kt p6sm -ra sct025 ovc090 fm120100 15007kt p6sm -ra sct015 ovc030 fm120400 10012kt 6sm -ra br sct008 ovc015 prob30 1206/1212 2sm -ra br ovc005 fm121300 08013g23kt 6sm br sct008 ovc015  METAR KATL 100052Z 25003KT 10SM FEW030 SCT200 SCT250 25/19 A3002 RMK AO2 SLP155 T02500194. ... KFTY - Fulton County Executive/Charlie Brown Field (9.7 NM) METAR TAF KHMP - Atlanta Speedway Airport (16 NM) METAR KPDK - Dekalb-Peachtree Airport (16 NM) METAR TAF KMGE - Dobbins Air Reserve Base (17 …Updated at 1124 UTC 01 Oct 2023. NOTE: LAMP data beyond the time of the TAF data is denoted as LAMP in Type and colored magenta. For situational awareness. Not to be used for flight planning purposes. Aviation Weather Center Homepage provides comprehensive user-friendly aviation weather Text products and graphics.Raw TAF. KATL 051953Z 0520/0624 14006KT P6SM VCSH SCT040 SCT100. TEMPO 0521/0601 VRB15G25KT 4SM TSRA BKN035CB. FM060200 12005KT P6SM SCT040 SCT150. FM061100 11003KT P6SM FEW010 SCT025. FM061800 12006KT P6SM BKN035. NOTE: LAMP data beyond the time of the TAF data is denoted as LAMP in Type and colored magenta. Raw TAF KATL 291559Z 2916/3018 06006KT P6SM FEW250 FM291800 03008KT P6SM FEW040 SCT250 FM292300 04004KT P6SM SCT050 FM300100 VRB04KT P6SM FEW250 Raw METAR KATL 291652Z 04004KT 10SM FEW038 …TAF: KATL 011720Z 0118/0224 08010KT P6SM SCT040 FM020000 08004KT P6SM FEW250 FM021500 08008KT P6SM SCT040. Weather observations and forecasts of …Updated at 0245 UTC 05 Oct 2023. NOTE: LAMP data beyond the time of the TAF data is denoted as LAMP in Type and colored magenta. For situational awareness. Not to be used for flight planning purposes. Aviation Weather Center Homepage provides comprehensive user-friendly aviation weather Text products and graphics. Sunrise and sunset table Hartsfield Jackson Atlanta International Airport. In this table you find the sunrise and sunset times for KATL (33.6367, -84.4281). All times are local times. Note that the uniform daylight period may be different.TAF for: KATL (Atlanta/Hartsfield I, GA, US) issued at 2326 UTC 01 Oct 2023: Text: KATL 012326Z 0200/0306 08007KT P6SM FEW050 SCT200 : Forecast period: 0000 to 0200 UTC 02 October 2023: Forecast type: FROM: standard forecast or significant change: Winds: from the E (80 degrees) at 8 MPH (7 knots; 3.6 m/s)METAR Amsterdam Airport Schiphol - EHAM/AMS. Amsterdam Airport Schiphol is a large airport in North Holland, Netherlands. The airport is located at latitude 52.31488 and longitude 4.75807. The airport has 6 runways: 18L/36R, 18C/36C, 18R/36L, 4/22, 6/24 and 9/27. The ICAO airport code of this field is EHAM.data at: 1401 utc 29 sep 2023. rksi 291330z 25003kt cavok 21/16 q1012 nosig taf rksi 291100z 2912/3018 29006kt cavok tn18/2918z tx24/3006z becmg 2922/2924 23006kt 9999 few012 sct030 bkn080 tempo 3000/3003 23012g25kt 7000 -ra becmg 3003/3005 29015g25kt cavok becmg 3010/3012 32013kt tempo 3012/3018 33015g25ktImpacts TAF Board. TAF Home. Plot. Data. Board. Info. For situational awareness. Not to be used for flight planning purposes. IDs: KATL - Atlanta/Hartsfield I, GA, US. Issued at 1353 UTC 08 Jun 2023. Updated at 1442 UTC 08 Jun 2023. Potential Impact: None: Slight: Moderate: High: Time 1352Z 08/15Z 08/16Z 08/17Z 08/18Z 08/19ZUpdated at 0245 UTC 05 Oct 2023. NOTE: LAMP data beyond the time of the TAF data is denoted as LAMP in Type and colored magenta. For situational awareness. Not to be used for flight planning purposes. Aviation Weather Center Homepage provides comprehensive user-friendly aviation weather Text products and graphics. A METAR (METeorological Aerodrome Report) is an observation and provides information about the current weather. A TAF (Terminal Area Forecast) provides a forecast for a longer period, for example 8, 24 or 36 hours. Both are prepared for aviation and contain weather information that pilots need. A METAR is prepared by a meteorologist or ...Jul 17, 2023 · 5 kt. METAR KATL 150752Z 29005KT 10SM BKN180 BKN250 25/22 A2995 RMK AO2 SLP129 T02500217 $. Easy access to all aviation weather on your mobile phone and tablet. With many features not available on the website, like offline support and a personal airport list. Europe. Weather observations and forecasts of more than 4000 airports (METAR and TAF reports). The available stations are represented by yellow and red dots on the map. Hover mouse over dot to see the name of the station. Then click to see weather observations and forecasts. To change the map : click on the green buttons with a black cross to ...Below are listed examples for each of the data API scripts. You can also use the API builder to construct your own requests. METARs. TAFs. PIREPs. AIRMET/SIGMET. Intl SIGMET. G-AIRMET. OCONUS FAs.  data at: 2252 utc 08 oct 2023. katl 082152z 31008kt 10sm clr 19/00 a2996 rmk ao2 slp141 t01940000 $ katl 082052z 30007kt 10sm clr 20/01 a2996 rmk ao2 slp143 t02000006 56021 $ katl 082158z 0822/0924 30012kt p6sm skc fm090000 30005kt p6sm skc fm091300 23005kt p6sm skc fm091700 23009kt p6sm skcHartsfield Jackson Atlanta International Airport is a large airport in Fulton County, Georgia, United States. The airport has 5 runways: 8L/26R, 8R/26L, 9L/27R, 9R/27L and 10/28. …  TAF Text Data. TAF Home. Plot. Data. Board. Info. IDs: Format: Raw Decoded Include METAR Data at: 2352 UTC 16 Apr 2023. TAF for: KATL (Atlanta/Hartsfield I, GA, US) issued at 2334 UTC 16 Apr 2023: Text: KATL 162334Z 1700/1806 28015G25KT P6SM FEW060 BKN250 : Forecast period: 0000 to 0300 UTC 17 April 2023:IDs: Format: Raw Decoded Include TAF. Data at: 1011 UTC 07 Oct 2023. KATL 070952Z 32009KT 10SM CLR 16/13 A2998 RMK AO2 SLP147 T01560128 $. KATL 070852Z 32009KT 10SM FEW250 17/14 A2997 RMK AO2 SLP143 T01670144 55002 $. KATL 070752Z 32010KT 10SM FEW100 FEW250 17/16 A2997 RMK AO2 SLP142 T01720156 $. KATL 070652Z 32012KT 10SM FEW006 FEW100 18/16 ...KATL (ATLANTA , GA, US) Text: KATL 262347Z 2700/2806 06009KT P6SM VCSH BKN012 BKN020 OVC060 : Forecast period: 0000 to 0500 UTC 27 April 2023 Forecast type: FROM: standard forecast or significant change Winds: from the ENE (60 degrees) at 10 MPH (9 knots; 4.6 m/s) Visibility: 6 or more miles (10+ km) Ceiling: Impacts TAF Board. TAF Home. Plot. Data. Board. Info. For situational awareness. Not to be used for flight planning purposes. IDs: KATL - Atlanta/Hartsfield I, GA, US. Issued at 1346 UTC 16 Apr 2023. Updated at 1431 UTC 16 Apr 2023. Potential Impact: None: Slight: Moderate: High: Time 1406Z 16/15Z 16/16Z 16/17Z 16/18Z 16/19ZKATL METAR TAF. AREA AREA METARS. AREA TAFS. TRENDS WX HISTORY. WX GRAPHS. Search icon. KATL METAR TAF AREA METARS AREA TAFS. KATL. UTC. Hartsfield Jackson Atlanta International Airport Atlanta, Georgia, United States. METAR - Current. KATL 300752Z 00000KT 10SM FEW250 21/17 A3010 RMK AO2 SLP184 …KATL (ATLANTA , GA, US) Text: KATL 262347Z 2700/2806 06009KT P6SM VCSH BKN012 BKN020 OVC060 : Forecast period: 0000 to 0500 UTC 27 April 2023 Forecast type: FROM: standard forecast or significant change Winds: from the ENE (60 degrees) at 10 MPH (9 knots; 4.6 m/s) Visibility: 6 or more miles (10+ km) Ceiling: Weather radar, wind and waves forecast for kiters, surfers, paragliders, pilots, sailors and anyone else. Worldwide animated weather map, with easy to use layers and precise spot forecast. METAR, TAF and NOTAMs for any airport in the World. SYNOP codes from weather stations and buoys. Forecast models ECMWF, GFS, NAM and NEMS Data. Board. Info. IDs: Format: Raw Decoded Include TAF. Data at: 1007 UTC 11 Oct 2023. Region: TOP. KATL 110952Z 00000KT 10SM BKN200 BKN250 18/13 A2991 RMK AO2 SLP121 T01780133 $. KBOS 110954Z 21004KT 10SM BKN100 11/09 A2986 RMK AO2 SLP110 T01110094.KCVC 110335Z AUTO 00000KT 10SM CLR 18/13 A2989 RMK AO2. No TAF found for KCVC. KATL 110252Z 22005KT 10SM SCT200 BKN250 21/13 A2990 RMK AO2 SLP117 T02060128 51007 $. KATL 110159Z 1102/1206 23007KT P6SM FEW080 BKN200 BKN250. FM111200 24003KT P6SM OVC250.METAR &amp; TAF. Decodificador visual. Aeropuerto Internacional Hartsfield-Jackson KATL. Compartir Registrarse ¡Gratis! Iniciar sesión Configuración Modo oscuro. ... Info ; Pantalla completa Compartir. Actualizar. NOTAM Aeropuerto Internacional Hartsfield-Jackson (KATL) 23 marzo 17:31 LT 3wk . 03/448 (A2007/22) 23 mar. 2022 21:12 LTKATL 120752Z 09010KT 8SM -RA BKN007 BKN015 OVC050 16/14 A2980 RMK AO2 SLP084 CIG 006V009 P0004 T01560139 $ Conditions at: KATL (ATLANTA , GA, US) observed 0752 UTC 12 October 2023 Temperature: 15.6°C (60°F) Dewpoint: 13.9°C (57°F) [RH = 90%] Pressure (altimeter): 29.80 inches Hg (1009.2 mb) ...KATL - Atlanta/Hartsfield I, GA, US. Updated at: 2100 UTC 08 Sep 2023 Latest TAF at: 1945 UTC 08 Sep 2023. TAF Board. Time 2052Z 08/21Z 08/22Z 08/23Z 09/00Z 09/01Z 09/02Zdata at: 2158 utc 12 oct 2023. katl 122152z 05015g19kt 10sm bkn022 ovc030 19/14 a2983 rmk ao2 slp096 t01940144 $ katl 122157z 1222/1324 05015kt p6sm bkn022 ovc030 fm130000 08009kt p6sm sct025 bkn040 fm130700 07008kt p6sm vcsh sct008 bkn012 fm131300 08011kt 6sm -radz br bkn008 fm132200 08008kt 5sm -radz br ovc006Include METAR. Data at: 0819 UTC 23 Sep 2023. Region: TOP. KATL 230137Z 2302/2406 03005KT P6SM FEW080 FM230400 05004KT P6SM SCT250 FM231100 29004KT P6SM FEW250KATL - Atlanta/Hartsfield I, GA, US. Issued at 1720 UTC 25 Sep 2023. Updated at 1933 UTC 25 Sep 2023. Potential Impact: None: Slight: Moderate: High: Time &lt;&lt;26/08Z 26/09Z 26/10Z 26/11Z 26/12Z 26/13Z ... NOTE: LAMP data beyond the time of the TAF data is denoted as LAMP in Type and colored magenta.TAF SKRG 300430Z 3006/0106 VRB02KT 9999 SCT012. PROB40. TEMPO 3009/3012 5000 BCFG DZ BKN007. BECMG 3013/3015 10010KT. BECMG 0100/0102 VRB02KT TX23/3019Z TN13/3011Z. Aviation Weather Center Homepage provides comprehensive user-friendly aviation weather Text products and graphics.katl: taf: 2023/10/07: 06:27 utc: noaa: taf katl 070524z 0706/0812 32009 kt p6 sm few 008 bkn 120 tempo 0706/0707 bkn 008 fm 071000 33010g20 kt p6 sm skc fm 071500 33012g25 kt p6 sm skc fm 072200 33013 kt p6 sm skc fm 080100 33009 kt p6 sm skcTAF KATL 121720Z 121818 20012KT 5SM HZ BKN030 FM2000 3SM TSRA OVC025CB FM2200 33015G20KT P6SM BKN015 OVC040 BECMG 0608 02008KT BKN 040 BECMG 1012 00000KT P6SM CLR= and more. Study with Quizlet and memorize flashcards containing terms like When operating under Instrument Flight Rules, a pilot must file an …Updated at 2326 UTC 09 Oct 2023. NOTE: LAMP data beyond the time of the TAF data is denoted as LAMP in Type and colored magenta. For situational awareness. Not to be used for flight planning purposes. Aviation Weather Center Homepage provides comprehensive user-friendly aviation weather Text products and graphics.KATL 110535Z 1106/1212 24004KT P6SM FEW050 FEW250 FM111000 23005KT P6SM SCT025 BKN050 TEMPO 1110/1114 4SM TSRA BR OVC025CB FM111500 24007KT P6SM BKN050 ...  TAF KATL 121720Z 121818 20012KT 5SM HZ BKN030 FM2000 3SM TRSA OVC025CB FM 2200 33015G20KT P6SM BKN015 OVC040 BECMG 0608 02008K BKN 040 BECMG 1012 00000KT P6SM CLR= no because the ceiling and visibility are forecast to be at or above 2,000 ft and 3 miles within 1 hour before to 1 hour after the ETA no because the …Temperature 16 °C Humidity 82 % Pressure 1015 hPa Visibility: 16.1 km Clear sky Change units METAR: KATL 070952Z 32009KT 10SM CLR 16/13 A2998 RMK AO2 SLP147 T01560128 $ Time: 06:47 (10:47 UTC) Forecast The report was made 1 hour and 17 minutes ago, at 09:30 UTC Forecast valid from 07 at 10 UTC to 08 at 12 UTC Wind 9 kt from the NorthwestNOTE: LAMP data beyond the time of the TAF data is denoted as LAMP in Type and colored magenta. Raw TAF KATL 291559Z 2916/3018 06006KT P6SM FEW250 FM291800 03008KT P6SM FEW040 SCT250 FM292300 04004KT P6SM SCT050 FM300100 VRB04KT P6SM FEW250 Raw METAR KATL 291652Z 04004KT 10SM FEW038 FEW250 27/16 A3013 RMK AO2 SLP195 T02670161 KATL 291552Z 09006KT 10SM FEW032 FEW250 25/17 A3014 RMK AO2 SLP199 ...METAR history KATL · Hartsfield-Jackson Atlanta International Recent 2023 2022 2021 2020 2019 2018 2017 2016 2015 2014 2013 2012 2011 2010 2009 2008 2007 Select a date to see all historical METARs of Hartsfield …Oct 5, 2023 · taf; katl : 120737z 1208/1312 09012kt 6sm -ra br sct007 ovc010 tempo 1209/1213 4sm ra br ovc005 fm121300 08014g24kt p6sm sct005 ovc008 fm121700 08012kt p6sm bkn020 ...  Raw TAF. KATL 051953Z 0520/0624 14006KT P6SM VCSH SCT040 SCT100. TEMPO 0521/0601 VRB15G25KT 4SM TSRA BKN035CB. FM060200 12005KT P6SM SCT040 SCT150. FM061100 11003KT P6SM FEW010 SCT025. FM061800 12006KT P6SM BKN035.Forecast. TAF: KATL 011720Z 0118/0224 08010KT P6SM SCT040 FM020000 08004KT P6SM FEW250 FM021500 08008KT P6SM SCT040. Weather observations and forecasts of more than 4000 airports (METAR and TAF reports). The available stations are represented by yellow and red dots on the map. Hover mouse over dot to see the name of the station.METAR KATL 090152Z 29005KT 10SM SCT120 BKN200 BKN250 24/20 A2999 RMK AO2 SLP147 T02390200 $. The wind is from direction 290° with a speed of 5 kt. Visibility is 10 mi. The ceiling, broken or more, is 20,000 ft. …AVIATION WEATHER CENTER TAF Text Data TAF Home Plot Data Board Info IDs: Format: Raw Decoded Include METAR Data at: 1604 UTC 08 Oct 2023 Page loaded: 16:04 UTC | 09:04 AM Pacific | 10:04 AM Mountain | 11:04 AM Central | 12:04 PM Eastern </p><br/><ul class="links"></ul></div></sup></sup></sup></sup></sup></sup></sup></sup></sup></sup></sup></sup></sup></sup></sup>
<!-- Google tag (gtag.js) -->
<script async="" src="https://www.googletagmanager.com/gtag/js?id=G-BHLC8B3GE4"></script>
<script>
      window.dataLayer = window.dataLayer || [];
      function gtag(){dataLayer.push(arguments);}
      gtag('js', new Date());

      gtag('config', 'G-BHLC8B3GE4');
    </script>
</body>
<!-- Mirrored from sentimentaleconomics.eu/blog/katl-taf.html by HTTrack Website Copier/3.x [XR&CO'2014], Sat, 09 Dec 2023 04:08:02 GMT -->
</html>